{
  "type": "FeatureCollection",
  "features": [
    {
      "type": "Feature",
      "properties": {
        "norad_id": 40118,
        "name": "GAOFEN-2",
        "group": "resource",
        "lat": 41.13133494961801,
        "lon": 51.8946016679687,
        "alt_km": 619.0612073755301,
        "timestamp": "2025-12-25T19:00:39.005314+00:00",
        "meta_object_name": "GAOFEN-2",
        "meta_object_id": "2014-049A",
        "meta_epoch": "2025-12-25T07:28:12.720576",
        "meta_mean_motion": 14.80628117,
        "meta_eccentricity": 0.0008726,
        "meta_inclination": 98.0363,
        "meta_ra_of_asc_node": 58.5005,
        "meta_arg_of_pericenter": 78.1327,
        "meta_mean_anomaly": 282.0863,
        "meta_ephemeris_type": 0,
        "meta_classification_type": "U",
        "meta_norad_cat_id": 40118,
        "meta_element_set_no": 999,
        "meta_rev_at_epoch": 61350,
        "meta_bstar": 7.651956e-05,
        "meta_mean_motion_dot": 5.34e-06,
        "meta_mean_motion_ddot": 0,
        "tle_line1": "1 40118U 14049A   25359.31125834  .00000534  00000+0  76520-4 0  9998",
        "tle_line2": "2 40118  98.0363  58.5005 0008726  78.1327 282.0863 14.80628117613501"
      },
      "geometry": {
        "type": "Point",
        "coordinates": [
          51.8946016679687,
          41.13133494961801
        ]
      }
    },
    {
      "type": "Feature",
      "properties": {
        "norad_id": 40143,
        "name": "YAOGAN-21",
        "group": "resource",
        "lat": -47.07467424871329,
        "lon": -145.245595260801,
        "alt_km": 505.08467293849935,
        "timestamp": "2025-12-25T19:00:39.005324+00:00",
        "meta_object_name": "YAOGAN-21",
        "meta_object_id": "2014-053A",
        "meta_epoch": "2025-12-25T06:58:58.988064",
        "meta_mean_motion": 15.23799126,
        "meta_eccentricity": 0.00084754,
        "meta_inclination": 97.1735,
        "meta_ra_of_asc_node": 42.0577,
        "meta_arg_of_pericenter": 0.5407,
        "meta_mean_anomaly": 359.5839,
        "meta_ephemeris_type": 0,
        "meta_classification_type": "U",
        "meta_norad_cat_id": 40143,
        "meta_element_set_no": 999,
        "meta_rev_at_epoch": 62845,
        "meta_bstar": 0.00024517451,
        "meta_mean_motion_dot": 5.841e-05,
        "meta_mean_motion_ddot": 0,
        "tle_line1": "1 40143U 14053A   25359.29096051  .00005841  00000+0  24517-3 0  9990",
        "tle_line2": "2 40143  97.1735  42.0577 0008475   0.5407 359.5839 15.23799126628453"
      },
      "geometry": {
        "type": "Point",
        "coordinates": [
          -145.245595260801,
          -47.07467424871329
        ]
      }
    },
    {
      "type": "Feature",
      "properties": {
        "norad_id": 40275,
        "name": "YAOGAN-22",
        "group": "resource",
        "lat": 15.058270284823216,
        "lon": 140.46843690665133,
        "alt_km": 1206.7209586262798,
        "timestamp": "2025-12-25T19:00:39.005334+00:00",
        "meta_object_name": "YAOGAN-22",
        "meta_object_id": "2014-063A",
        "meta_epoch": "2025-12-25T07:58:53.836320",
        "meta_mean_motion": 13.15523268,
        "meta_eccentricity": 0.00060926,
        "meta_inclination": 100.743,
        "meta_ra_of_asc_node": 142.9302,
        "meta_arg_of_pericenter": 218.1479,
        "meta_mean_anomaly": 141.9202,
        "meta_ephemeris_type": 0,
        "meta_classification_type": "U",
        "meta_norad_cat_id": 40275,
        "meta_element_set_no": 999,
        "meta_rev_at_epoch": 53695,
        "meta_bstar": 6.6986484e-05,
        "meta_mean_motion_dot": -2.1e-07,
        "meta_mean_motion_ddot": 0,
        "tle_line1": "1 40275U 14063A   25359.33256755 -.00000021  00000+0  66986-4 0  9994",
        "tle_line2": "2 40275 100.7430 142.9302 0006092 218.1479 141.9202 13.15523268536958"
      },
      "geometry": {
        "type": "Point",
        "coordinates": [
          140.46843690665133,
          15.058270284823216
        ]
      }
    },
    {
      "type": "Feature",
      "properties": {
        "norad_id": 40298,
        "name": "ASNARO",
        "group": "resource",
        "lat": 79.53251499180647,
        "lon": 30.99766698478813,
        "alt_km": 495.22423998492195,
        "timestamp": "2025-12-25T19:00:39.005345+00:00",
        "meta_object_name": "ASNARO",
        "meta_object_id": "2014-070A",
        "meta_epoch": "2025-12-25T06:00:27.340416",
        "meta_mean_motion": 15.19751329,
        "meta_eccentricity": 0.00057712,
        "meta_inclination": 97.3633,
        "meta_ra_of_asc_node": 74.8916,
        "meta_arg_of_pericenter": 88.5394,
        "meta_mean_anomaly": 271.6502,
        "meta_ephemeris_type": 0,
        "meta_classification_type": "U",
        "meta_norad_cat_id": 40298,
        "meta_element_set_no": 999,
        "meta_rev_at_epoch": 61759,
        "meta_bstar": 0.00069856308,
        "meta_mean_motion_dot": 0.00014895,
        "meta_mean_motion_ddot": 0,
        "tle_line1": "1 40298U 14070A   25359.25031644  .00014895  00000+0  69856-3 0  9997",
        "tle_line2": "2 40298  97.3633  74.8916 0005771  88.5394 271.6502 15.19751329617592"
      },
      "geometry": {
        "type": "Point",
        "coordinates": [
          30.99766698478813,
          79.53251499180647
        ]
      }
    },
    {
      "type": "Feature",
      "properties": {
        "norad_id": 40310,
        "name": "YAOGAN-24",
        "group": "resource",
        "lat": 1.9531305271769441,
        "lon": -48.765221287187565,
        "alt_km": 641.9928619623033,
        "timestamp": "2025-12-25T19:00:39.005355+00:00",
        "meta_object_name": "YAOGAN-24",
        "meta_object_id": "2014-072A",
        "meta_epoch": "2025-12-25T08:26:54.100320",
        "meta_mean_motion": 14.76203065,
        "meta_eccentricity": 0.00152102,
        "meta_inclination": 98.1234,
        "meta_ra_of_asc_node": 130.5133,
        "meta_arg_of_pericenter": 100.5143,
        "meta_mean_anomaly": 259.7781,
        "meta_ephemeris_type": 0,
        "meta_classification_type": "U",
        "meta_norad_cat_id": 40310,
        "meta_element_set_no": 999,
        "meta_rev_at_epoch": 59807,
        "meta_bstar": 0.00018639264,
        "meta_mean_motion_dot": 1.239e-05,
        "meta_mean_motion_ddot": 0,
        "tle_line1": "1 40310U 14072A   25359.35201505  .00001239  00000+0  18639-3 0  9991",
        "tle_line2": "2 40310  98.1234 130.5133 0015210 100.5143 259.7781 14.76203065598078"
      },
      "geometry": {
        "type": "Point",
        "coordinates": [
          -48.765221287187565,
          1.9531305271769441
        ]
      }
    },
    {
      "type": "Feature",
      "properties": {
        "norad_id": 40336,
        "name": "CBERS 4",
        "group": "resource",
        "lat": 9.688366535131333,
        "lon": -121.20577341272678,
        "alt_km": 774.5286154968653,
        "timestamp": "2025-12-25T19:00:39.005365+00:00",
        "meta_object_name": "CBERS 4",
        "meta_object_id": "2014-079A",
        "meta_epoch": "2025-12-25T06:30:40.975776",
        "meta_mean_motion": 14.35522682,
        "meta_eccentricity": 0.00018867,
        "meta_inclination": 98.3288,
        "meta_ra_of_asc_node": 56.8583,
        "meta_arg_of_pericenter": 98.9772,
        "meta_mean_anomaly": 261.1627,
        "meta_ephemeris_type": 0,
        "meta_classification_type": "U",
        "meta_norad_cat_id": 40336,
        "meta_element_set_no": 999,
        "meta_rev_at_epoch": 57900,
        "meta_bstar": 8.6079923e-05,
        "meta_mean_motion_dot": 2.06e-06,
        "meta_mean_motion_ddot": 0,
        "tle_line1": "1 40336U 14079A   25359.27130759  .00000206  00000+0  86080-4 0  9998",
        "tle_line2": "2 40336  98.3288  56.8583 0001886  98.9772 261.1627 14.35522682579000"
      },
      "geometry": {
        "type": "Point",
        "coordinates": [
          -121.20577341272678,
          9.688366535131333
        ]
      }
    },
    {
      "type": "Feature",
      "properties": {
        "norad_id": 40362,
        "name": "YAOGAN-26",
        "group": "resource",
        "lat": -37.08752887326081,
        "lon": 5.383034372862469,
        "alt_km": 450.58506012137514,
        "timestamp": "2025-12-25T19:00:39.005375+00:00",
        "meta_object_name": "YAOGAN-26",
        "meta_object_id": "2014-088A",
        "meta_epoch": "2025-12-25T06:41:42.815328",
        "meta_mean_motion": 15.39742624,
        "meta_eccentricity": 0.00043081,
        "meta_inclination": 97.0646,
        "meta_ra_of_asc_node": 359.5083,
        "meta_arg_of_pericenter": 349.3348,
        "meta_mean_anomaly": 10.7806,
        "meta_ephemeris_type": 0,
        "meta_classification_type": "U",
        "meta_norad_cat_id": 40362,
        "meta_element_set_no": 999,
        "meta_rev_at_epoch": 61087,
        "meta_bstar": 0.0006535079,
        "meta_mean_motion_dot": 0.00025836,
        "meta_mean_motion_ddot": 0,
        "tle_line1": "1 40362U 14088A   25359.27896777  .00025836  00000+0  65351-3 0  9999",
        "tle_line2": "2 40362  97.0646 359.5083 0004308 349.3348  10.7806 15.39742624610878"
      },
      "geometry": {
        "type": "Point",
        "coordinates": [
          5.383034372862469,
          -37.08752887326081
        ]
      }
    }
  ]
}